NOAA 1 [-]              
1 04793U 70106A   22313.12006491 -.00000013  00000+0  19224-3 0  9996
2 04793 101.5396  13.1896 0031653  41.2970  13.1612 12.54008777375728
NOAA 2 (ITOS-D) [-]     
1 06235U 72082A   22313.91627903 -.00000034  00000+0  77002-4 0  9990
2 06235 101.9710 297.1408 0003988 153.1980 262.1236 12.53153635290190
NOAA 3 [-]              
1 06920U 73086A   22313.89020802 -.00000040  00000+0  45415-4 0  9998
2 06920 102.2255 295.9416 0006787  23.1920  44.8196 12.40350103219011
NOAA 4 [-]              
1 07529U 74089A   22313.89466328 -.00000049  00000+0 -18011-4 0  9997
2 07529 101.9324 294.0479 0008767 184.2630 230.9366 12.53162151195014
NOAA 5 [-]              
1 09057U 76077A   22313.87820532 -.00000037  00000+0  62024-4 0  9992
2 09057 102.1208 280.4153 0009436 231.9122 183.7568 12.37776182 91734
TIROS N [-]             
1 11060U 78096A   22313.87362085  .00000219  00000+0  12660-3 0  9997
2 11060  98.6175   3.6358 0011658  86.0813 274.1696 14.18436017492227
NOAA 6 [-]              
1 11416U 79057A   22313.90447884  .00000354  00000+0  14312-3 0  9991
2 11416  98.6623 324.9850 0010230 183.5220 176.5894 14.33833049262364
NOAA 7 [-]              
1 12553U 81059A   22314.14830352  .00000095  00000+0  69553-4 0  9992
2 12553  98.9813   0.2481 0012371  64.1767 296.0681 14.17354403138653
NOAA 8 [-]              
1 13923U 83022A   22313.87308933  .00000191  00000+0  93267-4 0  9996
2 13923  98.6994 303.9388 0015699 141.0778 219.1537 14.28853548 63170
NOAA 9 [-]              
1 15427U 84123A   22313.91792840  .00000171  00000+0  10971-3 0  9997
2 15427  99.0650 288.7147 0015739 111.6180 303.2036 14.16243069957206
NOAA 10 [-]             
1 16969U 86073A   22313.89005677  .00000181  00000+0  90223-4 0  9997
2 16969  98.5834 297.4714 0011153 244.7693 172.0341 14.28242576881590
NOAA 11 [-]             
1 19531U 88089A   22313.90428794  .00000079  00000+0  61209-4 0  9993
2 19531  98.4402 295.0985 0012156 116.8784 243.3634 14.15333322761394
NOAA 12 [-]             
1 21263U 91032A   22313.87585419  .00000124  00000+0  69826-4 0  9998
2 21263  98.5220 309.6760 0012479 274.4639  85.5115 14.26026805637455
NOAA 13 [-]             
1 22739U 93050A   22313.90730431  .00000149  00000+0  10204-3 0  9991
2 22739  98.5239 286.5780 0008505 290.2023  69.8235 14.12879606507596
NOAA 14 [-]             
1 23455U 94089A   22313.80653688  .00000071  00000+0  58591-4 0  9993
2 23455  98.4387 332.5928 0008329 266.1906  93.8315 14.14218573437250
NOAA 15 [B]             
1 25338U 98030A   22314.48866170  .00000179  00000+0  93142-4 0  9992
2 25338  98.6312 342.0309 0009594 227.7360 132.3007 14.26194309274083
NOAA 16 [-]             
1 26536U 00055A   22313.87902546  .00000129  00000+0  90875-4 0  9998
2 26536  98.6184   7.6365 0011586 109.0929 251.1500 14.13357489437898
NOAA 17 [-]             
1 27453U 02032A   22313.83426442  .00000223  00000+0  11371-3 0  9994
2 27453  98.6880 257.4918 0011221 204.6312 155.4332 14.25163767 59563
NOAA 18 [B]             
1 28654U 05018A   22314.45413546  .00000209  00000+0  13648-3 0  9998
2 28654  98.9355  24.6762 0013269 279.0209  80.9461 14.12804585900682
NOAA 19 [+]             
1 33591U 09005A   22314.54297541  .00000208  00000+0  13695-3 0  9990
2 33591  99.1323 351.6463 0014610 135.3636 224.8714 14.12635699709074
SUOMI NPP [+]           
1 37849U 11061A   22314.53619792  .00000115  00000+0  75440-4 0  9994
2 37849  98.7455 251.1276 0001012  88.1153  22.4886 14.19559555571917
NOAA 20 [+]             
1 43013U 17073A   22314.54910173  .00000096  00000+0  66113-4 0  9996
2 43013  98.7294 250.8814 0001256  58.8127 301.3172 14.19558055257953
